{
  "type": "FeatureCollection",
  "features": [
    {
      "type": "Feature",
      "properties": {
        "norad_id": 42917,
        "name": "QZS-3 (QZSS/PRN 199)",
        "group": "gnss",
        "lat": 0.039477530700977044,
        "lon": -80.6279592193716,
        "alt_km": 35779.57481935837,
        "timestamp": "2025-12-26T03:50:12.336430+00:00",
        "meta_object_name": "QZS-3 (QZSS/PRN 199)",
        "meta_object_id": "2017-048A",
        "meta_epoch": "2025-12-25T04:50:38.681376",
        "meta_mean_motion": 1.00265271,
        "meta_eccentricity": 0.0002002,
        "meta_inclination": 0.0617,
        "meta_ra_of_asc_node": 178.163,
        "meta_arg_of_pericenter": 103.2559,
        "meta_mean_anomaly": 12.1494,
        "meta_ephemeris_type": 0,
        "meta_classification_type": "U",
        "meta_norad_cat_id": 42917,
        "meta_element_set_no": 999,
        "meta_rev_at_epoch": 3051,
        "meta_bstar": 0,
        "meta_mean_motion_dot": -3.27e-06,
        "meta_mean_motion_ddot": 0,
        "tle_line1": "1 42917U 17048A   25359.20183659 -.00000327  00000+0  00000+0 0  9992",
        "tle_line2": "2 42917   0.0617 178.1630 0002002 103.2559  12.1494  1.00265271 30518"
      },
      "geometry": {
        "type": "Point",
        "coordinates": [
          -80.6279592193716,
          0.039477530700977044
        ]
      }
    },
    {
      "type": "Feature",
      "properties": {
        "norad_id": 42939,
        "name": "COSMOS 2522 (752)",
        "group": "gnss",
        "lat": 28.14736517915228,
        "lon": 2.6861090232118103,
        "alt_km": 19122.525297393757,
        "timestamp": "2025-12-26T03:50:12.336445+00:00",
        "meta_object_name": "COSMOS 2522 (752)",
        "meta_object_id": "2017-055A",
        "meta_epoch": "2025-12-24T02:08:41.637984",
        "meta_mean_motion": 2.13102066,
        "meta_eccentricity": 0.00062718,
        "meta_inclination": 64.0767,
        "meta_ra_of_asc_node": 197.8423,
        "meta_arg_of_pericenter": 223.2382,
        "meta_mean_anomaly": 136.7706,
        "meta_ephemeris_type": 0,
        "meta_classification_type": "U",
        "meta_norad_cat_id": 42939,
        "meta_element_set_no": 999,
        "meta_rev_at_epoch": 6424,
        "meta_bstar": 0,
        "meta_mean_motion_dot": 9.8e-07,
        "meta_mean_motion_ddot": 0,
        "tle_line1": "1 42939U 17055A   25358.08937081  .00000098  00000+0  00000+0 0  9999",
        "tle_line2": "2 42939  64.0767 197.8423 0006271 223.2382 136.7706  2.13102066 64248"
      },
      "geometry": {
        "type": "Point",
        "coordinates": [
          2.6861090232118103,
          28.14736517915228
        ]
      }
    },
    {
      "type": "Feature",
      "properties": {
        "norad_id": 42965,
        "name": "QZS-4 (QZSS/PRN 195)",
        "group": "gnss",
        "lat": -30.170962134973575,
        "lon": -57.776328944588805,
        "alt_km": 33264.03551224219,
        "timestamp": "2025-12-26T03:50:12.336501+00:00",
        "meta_object_name": "QZS-4 (QZSS/PRN 195)",
        "meta_object_id": "2017-062A",
        "meta_epoch": "2025-12-24T19:47:03.643008",
        "meta_mean_motion": 1.00301022,
        "meta_eccentricity": 0.0751986,
        "meta_inclination": 40.2171,
        "meta_ra_of_asc_node": 345.7144,
        "meta_arg_of_pericenter": 268.3083,
        "meta_mean_anomaly": 272.9513,
        "meta_ephemeris_type": 0,
        "meta_classification_type": "U",
        "meta_norad_cat_id": 42965,
        "meta_element_set_no": 999,
        "meta_rev_at_epoch": 3005,
        "meta_bstar": 0,
        "meta_mean_motion_dot": -3.02e-06,
        "meta_mean_motion_ddot": 0,
        "tle_line1": "1 42965U 17062A   25358.82434772 -.00000302  00000+0  00000+0 0  9996",
        "tle_line2": "2 42965  40.2171 345.7144 0751986 268.3083 272.9513  1.00301022 30053"
      },
      "geometry": {
        "type": "Point",
        "coordinates": [
          -57.776328944588805,
          -30.170962134973575
        ]
      }
    },
    {
      "type": "Feature",
      "properties": {
        "norad_id": 43001,
        "name": "BEIDOU-3 M1 (C19)",
        "group": "gnss",
        "lat": -39.33209986173103,
        "lon": 36.03538013747689,
        "alt_km": 21505.77112059114,
        "timestamp": "2025-12-26T03:50:12.336514+00:00",
        "meta_object_name": "BEIDOU-3 M1 (C19)",
        "meta_object_id": "2017-069A",
        "meta_epoch": "2025-12-25T03:49:47.920224",
        "meta_mean_motion": 1.86231313,
        "meta_eccentricity": 0.0009789,
        "meta_inclination": 56.5365,
        "meta_ra_of_asc_node": 68.8241,
        "meta_arg_of_pericenter": 302.2681,
        "meta_mean_anomaly": 57.6912,
        "meta_ephemeris_type": 0,
        "meta_classification_type": "U",
        "meta_norad_cat_id": 43001,
        "meta_element_set_no": 999,
        "meta_rev_at_epoch": 5536,
        "meta_bstar": 0,
        "meta_mean_motion_dot": -2.5e-07,
        "meta_mean_motion_ddot": 0,
        "tle_line1": "1 43001U 17069A   25359.15958241 -.00000025  00000+0  00000+0 0  9996",
        "tle_line2": "2 43001  56.5365  68.8241 0009789 302.2681  57.6912  1.86231313 55361"
      },
      "geometry": {
        "type": "Point",
        "coordinates": [
          36.03538013747689,
          -39.33209986173103
        ]
      }
    },
    {
      "type": "Feature",
      "properties": {
        "norad_id": 43002,
        "name": "BEIDOU-3 M2 (C20)",
        "group": "gnss",
        "lat": -6.717547810907595,
        "lon": 64.38028279686446,
        "alt_km": 21512.033599113176,
        "timestamp": "2025-12-26T03:50:12.336529+00:00",
        "meta_object_name": "BEIDOU-3 M2 (C20)",
        "meta_object_id": "2017-069B",
        "meta_epoch": "2025-12-25T15:14:16.903968",
        "meta_mean_motion": 1.86231039,
        "meta_eccentricity": 0.0006764,
        "meta_inclination": 56.5366,
        "meta_ra_of_asc_node": 68.8439,
        "meta_arg_of_pericenter": 327.6836,
        "meta_mean_anomaly": 32.3283,
        "meta_ephemeris_type": 0,
        "meta_classification_type": "U",
        "meta_norad_cat_id": 43002,
        "meta_element_set_no": 999,
        "meta_rev_at_epoch": 5536,
        "meta_bstar": 0,
        "meta_mean_motion_dot": -2.7e-07,
        "meta_mean_motion_ddot": 0,
        "tle_line1": "1 43002U 17069B   25359.63491787 -.00000027  00000+0  00000+0 0  9999",
        "tle_line2": "2 43002  56.5366  68.8439 0006764 327.6836  32.3283  1.86231039 55361"
      },
      "geometry": {
        "type": "Point",
        "coordinates": [
          64.38028279686446,
          -6.717547810907595
        ]
      }
    },
    {
      "type": "Feature",
      "properties": {
        "norad_id": 43055,
        "name": "GSAT0215 (GALILEO 19)",
        "group": "gnss",
        "lat": 48.51862957115539,
        "lon": -5.768321461676395,
        "alt_km": 23218.31374094952,
        "timestamp": "2025-12-26T03:50:12.336540+00:00",
        "meta_object_name": "GSAT0215 (GALILEO 19)",
        "meta_object_id": "2017-079A",
        "meta_epoch": "2025-12-24T05:08:42.877824",
        "meta_mean_motion": 1.70473983,
        "meta_eccentricity": 0.00011857,
        "meta_inclination": 55.1264,
        "meta_ra_of_asc_node": 226.3216,
        "meta_arg_of_pericenter": 351.3988,
        "meta_mean_anomaly": 8.6951,
        "meta_ephemeris_type": 0,
        "meta_classification_type": "U",
        "meta_norad_cat_id": 43055,
        "meta_element_set_no": 999,
        "meta_rev_at_epoch": 5000,
        "meta_bstar": 0,
        "meta_mean_motion_dot": 7.2e-07,
        "meta_mean_motion_ddot": 0,
        "tle_line1": "1 43055U 17079A   25358.21438516  .00000072  00000+0  00000+0 0  9991",
        "tle_line2": "2 43055  55.1264 226.3216 0001185 351.3988   8.6951  1.70473983 50002"
      },
      "geometry": {
        "type": "Point",
        "coordinates": [
          -5.768321461676395,
          48.51862957115539
        ]
      }
    },
    {
      "type": "Feature",
      "properties": {
        "norad_id": 43056,
        "name": "GSAT0216 (GALILEO 20)",
        "group": "gnss",
        "lat": -47.913730468856194,
        "lon": 175.75159632982087,
        "alt_km": 23221.689478970788,
        "timestamp": "2025-12-26T03:50:12.336551+00:00",
        "meta_object_name": "GSAT0216 (GALILEO 20)",
        "meta_object_id": "2017-079B",
        "meta_epoch": "2025-12-22T17:54:08.003808",
        "meta_mean_motion": 1.70474127,
        "meta_eccentricity": 0.00023154,
        "meta_inclination": 55.1272,
        "meta_ra_of_asc_node": 226.3621,
        "meta_arg_of_pericenter": 325.7724,
        "meta_mean_anomaly": 34.3161,
        "meta_ephemeris_type": 0,
        "meta_classification_type": "U",
        "meta_norad_cat_id": 43056,
        "meta_element_set_no": 999,
        "meta_rev_at_epoch": 4999,
        "meta_bstar": 0,
        "meta_mean_motion_dot": 7.3e-07,
        "meta_mean_motion_ddot": 0,
        "tle_line1": "1 43056U 17079B   25356.74592597  .00000073  00000+0  00000+0 0  9999",
        "tle_line2": "2 43056  55.1272 226.3621 0002315 325.7724  34.3161  1.70474127 49997"
      },
      "geometry": {
        "type": "Point",
        "coordinates": [
          175.75159632982087,
          -47.913730468856194
        ]
      }
    }
  ]
}